STARLINK-32873          
1 62857U 25022D   26068.41022985  .00010585  00000+0  36901-3 0  9992
2 62857  53.1591 131.1802 0001355  93.2123 266.9033 15.30199058 61854
TEVEL2-6                
1 63215U 25052F   26068.64958975  .00021046  00000+0  70909-3 0  9996
2 63215  97.4016 325.0381 0004769  95.6604 264.5181 15.30760889 54861
